GPS BIIR-2  (PRN 13)    
1 24876U 97035A   16051.43967619  .00000037  00000-0  00000+0 0  9998
2 24876  55.6993 246.1352 0044451 114.9100 245.5752  2.00562523136143
GPS BIIR-3  (PRN 11)    
1 25933U 99055A   16051.50362189 -.00000025  00000-0  00000+0 0  9994
2 25933  51.3191  98.8341 0159836  86.0682 245.1787  2.00565196119963
GPS BIIR-4  (PRN 20)    
1 26360U 00025A   16051.46666025 -.00000045  00000-0  00000+0 0  9991
2 26360  53.0716 175.0221 0046500  75.8429 331.9719  2.00560192115655
GPS BIIR-5  (PRN 28)    
1 26407U 00040A   16051.22321797 -.00000098  00000-0  00000+0 0  9996
2 26407  56.6988   3.9667 0201736 267.0051 241.9265  2.00569830114327
GPS BIIR-6  (PRN 14)    
1 26605U 00071A   16051.50598047  .00000034  00000-0  00000+0 0  9994
2 26605  55.2690 244.0462 0085358 248.7488  38.7445  2.00557311111930
GPS BIIR-7  (PRN 18)    
1 26690U 01004A   16051.46916742 -.00000043  00000-0  00000+0 0  9997
2 26690  53.0003 177.9988 0169048 250.7395 105.3783  2.00564113110331
GPS BIIR-8  (PRN 16)    
1 27663U 03005A   16051.47513442 -.00000098  00000-0  00000+0 0  9992
2 27663  56.7744   3.6670 0085054  17.3935  77.2237  2.00559878 95692
GPS BIIR-9  (PRN 21)    
1 27704U 03010A   16051.49451610 -.00000029  00000-0  00000+0 0  9998
2 27704  53.6102 118.2788 0233709 255.4956 173.7771  2.00564055 94490
GPS BIIR-10 (PRN 22)    
1 28129U 03058A   16051.08300413 -.00000043  00000-0  00000+0 0  9997
2 28129  52.8773 178.0589 0078802 244.9660 114.1704  2.00398093 89199
GPS BIIR-11 (PRN 19)    
1 28190U 04009A   16051.33180652 -.00000020  00000-0  00000+0 0  9996
2 28190  55.7192  65.0809 0111104  38.0943 103.0294  2.00386034 87363
GPS BIIR-12 (PRN 23)    
1 28361U 04023A   16051.24768091  .00000032  00000-0  00000+0 0  9993
2 28361  54.2372 239.6630 0106223 211.4160 142.3163  2.00557322 85440
GPS BIIR-13 (PRN 02)    
1 28474U 04045A   16051.32610402 -.00000029  00000-0  00000+0 0  9990
2 28474  54.0016 117.5595 0156340 236.5518 177.2191  2.00557207 82810
GPS BIIRM-1 (PRN 17)    
1 28874U 05038A   16051.32925509 -.00000022  00000-0  00000+0 0  9997
2 28874  55.8864  62.2721 0111971 248.7952 275.0127  2.00567503 76212
GPS BIIRM-2 (PRN 31)    
1 29486U 06042A   16051.47278610 -.00000032  00000-0  00000+0 0  9994
2 29486  55.7091 301.5675 0084206 333.9925 214.6077  2.00561059 68930
GPS BIIRM-3 (PRN 12)    
1 29601U 06052A   16051.15321398 -.00000099  00000-0  00000+0 0  9994
2 29601  56.7446   2.6049 0057355  36.7821 323.5962  2.00551638 67840
GPS BIIRM-4 (PRN 15)    
1 32260U 07047A   16050.98036610  .00000031  00000-0  00000+0 0  9999
2 32260  53.3667 236.4477 0079610  26.2708 334.1348  2.00548149 61226
GPS BIIRM-5 (PRN 29)    
1 32384U 07062A   16051.32953770 -.00000022  00000-0  00000+0 0  9998
2 32384  55.9400  62.8236 0011890 319.1211  71.5732  2.00571010 59969
GPS BIIRM-6 (PRN 07)    
1 32711U 08012A   16050.88720334 -.00000033  00000-0  00000+0 0  9998
2 32711  55.4321 301.0800 0091699 207.6753 151.8920  2.00563892 58141
GPS BIIRM-7 (PRN 04)    
1 34661U 09014A   16051.56794492 -.00000100  00000-0  00000+0 0  9994
2 34661  56.3475   0.9523 0079777  47.9541 149.7943  2.00572676 50689
GPS BIIRM-8 (PRN 05)    
1 35752U 09043A   16051.47838877 -.00000041  00000-0  00000+0 0  9998
2 35752  54.2248 179.0860 0044776  25.0201  70.9702  2.00556003 47735
GPS BIIF-1  (PRN 25)    
1 36585U 10022A   16051.37759286 -.00000101  00000-0  00000+0 0  9994
2 36585  56.0742 359.7450 0050328  38.0962  93.7093  2.00577968 41978
GPS BIIF-2  (PRN 01)    
1 37753U 11036A   16051.56550556 -.00000026  00000-0  00000+0 0  9994
2 37753  55.2201 120.0375 0049685  24.1285 326.1253  2.00565974 33662
GPS BIIF-3  (PRN 24)    
1 38833U 12053A   16051.06911050 -.00000029  00000-0  00000+0 0  9992
2 38833  54.4641 298.4664 0041968  18.2996 341.9110  2.00568172 24739
GPS BIIF-4  (PRN 27)    
1 39166U 13023A   16051.42693266 -.00000027  00000-0  00000+0 0  9994
2 39166  55.5967  59.4413 0031992   7.6464 352.4431  2.00568457 20260
GPS BIIF-5  (PRN 30)    
1 39533U 14008A   16050.92701892 -.00000040  00000-0  00000+0 0  9990
2 39533  54.6178 303.6874 0016949 180.2498 179.8046  2.00567906 14621
GPS BIIF-6  (PRN 06)    
1 39741U 14026A   16051.20331326 -.00000029  00000-0  00000+0 0  9991
2 39741  55.2112 119.5679 0005416 256.9690 103.0271  2.00567348 12904
GPS BIIF-7  (PRN 09)    
1 40105U 14045A   16051.29747473  .00000033  00000-0  00000+0 0  9995
2 40105  54.7552 239.3091 0004418 120.4947 239.5580  2.00567961 11359
GPS BIIF-8  (PRN 03)    
1 40294U 14068A   16051.16552632 -.00000039  00000-0  00000+0 0  9993
2 40294  54.9635 179.7059 0003578 219.5027 140.4262  2.00552993  9575
GPS BIIF-9  (PRN 26)    
1 40534U 15013A   16051.30548754 -.00000102  00000-0  00000+0 0  9998
2 40534  55.0437 359.3316 0009149 340.2248  19.7296  2.00559257  6643
GPS BIIF-10  (PRN 08)   
1 40730U 15033A   16050.46677310 -.00000026  00000-0  00000+0 0  9990
2 40730  55.1328  59.3697 0020358 280.7550  79.0579  2.00566453  4387
GPS BIIF-11  (PRN 10)   
1 41019U 15062A   16051.01839177 -.00000039  00000-0  00000+0 0  9990
2 41019  54.9786 179.4766 0011971 204.3855 155.5119  2.00561955  2217
GPS BIIF-12  (PRN 32)   
1 41328U 16007A   16050.49406527  .00000045  00000-0  00000+0 0  9999
2 41328  55.0240 239.3806 0002806 306.3746  53.7629  1.97617829   273
